{
    "links": {
        "self": "http://www.neowsapp.com/rest/v1/neo/3840722?api_key=iIulBulltgU6a56xZRHN4H3l9WmuAYTsLGpBGhQ2"
    },
    "id": "3840722",
    "neo_reference_id": "3840722",
    "name": "(2019 FA2)",
    "designation": "2019 FA2",
    "nasa_jpl_url": "http://ssd.jpl.nasa.gov/sbdb.cgi?sstr=3840722",
    "absolute_magnitude_h": 26.1,
    "estimated_diameter": {
        "kilometers": {
            "estimated_diameter_min": 0.0160160338,
            "estimated_diameter_max": 0.0358129403
        },
        "meters": {
            "estimated_diameter_min": 16.0160337979,
            "estimated_diameter_max": 35.8129403019
        },
        "miles": {
            "estimated_diameter_min": 0.0099518989,
            "estimated_diameter_max": 0.0222531225
        },
        "feet": {
            "estimated_diameter_min": 52.5460443254,
            "estimated_diameter_max": 117.4965270602
        }
    },
    "is_potentially_hazardous_asteroid": false,
    "close_approach_data": [
        {
            "close_approach_date": "2019-03-27",
            "close_approach_date_full": "2019-Mar-27 17:01",
            "epoch_date_close_approach": 1553706060000,
            "relative_velocity": {
                "kilometers_per_second": "20.6382878796",
                "kilometers_per_hour": "74297.8363667033",
                "miles_per_hour": "46165.7861579663"
            },
            "miss_distance": {
                "astronomical": "0.0074720343",
                "lunar": "2.9066213427",
                "kilometers": "1117800.415846941",
                "miles": "694568.9708161458"
            },
            "orbiting_body": "Earth"
        },
        {
            "close_approach_date": "2019-03-27",
            "close_approach_date_full": "2019-Mar-27 17:01",
            "epoch_date_close_approach": 1553706060000,
            "relative_velocity": {
                "kilometers_per_second": "21.6203861785",
                "kilometers_per_hour": "77833.3902426047",
                "miles_per_hour": "48362.6418426896"
            },
            "miss_distance": {
                "astronomical": "0.0057751438",
                "lunar": "2.2465309382",
                "kilometers": "863949.211423706",
                "miles": "536833.1466949028"
            },
            "orbiting_body": "Moon"
        }
    ],
    "orbital_data": {
        "orbit_id": "5",
        "orbit_determination_date": "2019-04-07 07:40:18",
        "first_observation_date": "2019-03-30",
        "last_observation_date": "2019-04-06",
        "data_arc_in_days": 7,
        "observations_used": 54,
        "orbit_uncertainty": "8",
        "minimum_orbit_intersection": ".00481288",
        "jupiter_tisserand_invariant": "3.591",
        "epoch_osculation": "2458577.5",
        "eccentricity": ".7018613323359459",
        "semi_major_axis": "1.905769018998819",
        "inclination": "2.93910139433798",
        "ascending_node_longitude": "192.1503706981138",
        "orbital_period": "960.9567036210813",
        "perihelion_distance": ".5681834361997392",
        "perihelion_argument": "262.0660876697355",
        "aphelion_distance": "3.243354601797899",
        "perihelion_time": "2458522.850888066995",
        "mean_anomaly": "20.47301425938063",
        "mean_motion": ".3746266597063597",
        "equinox": "J2000",
        "orbit_class": {
            "orbit_class_type": "APO",
            "orbit_class_description": "Near-Earth asteroid orbits which cross the Earth’s orbit similar to that of 1862 Apollo",
            "orbit_class_range": "a (semi-major axis) > 1.0 AU; q (perihelion) < 1.017 AU"
        }
    },
    "is_sentry_object": false
}